{
  "type": "FeatureCollection",
  "features": [
    {
      "type": "Feature",
      "properties": {
        "norad_id": 66740,
        "name": "TRANSPORTER-15CC",
        "group": "last-30-days",
        "lat": -27.46970589463467,
        "lon": 76.98294623403805,
        "alt_km": 519.1693138534556,
        "timestamp": "2025-12-27T13:34:48.006588+00:00",
        "meta_object_name": "TRANSPORTER-15CC",
        "meta_object_id": "2025-276CC",
        "meta_epoch": "2025-12-27T05:47:26.267136",
        "meta_mean_motion": 15.17782071,
        "meta_eccentricity": 0.00023936,
        "meta_inclination": 97.4403,
        "meta_ra_of_asc_node": 72.7682,
        "meta_arg_of_pericenter": 215.056,
        "meta_mean_anomaly": 145.0517,
        "meta_ephemeris_type": 0,
        "meta_classification_type": "U",
        "meta_norad_cat_id": 66740,
        "meta_element_set_no": 999,
        "meta_rev_at_epoch": 432,
        "meta_bstar": 0.00052505031,
        "meta_mean_motion_dot": 0.0001055,
        "meta_mean_motion_ddot": 0,
        "tle_line1": "1 66740U 25276CC  25361.24127624  .00010550  00000+0  52505-3 0  9990",
        "tle_line2": "2 66740  97.4403  72.7682 0002393 215.0560 145.0517 15.17782071  4321"
      },
      "geometry": {
        "type": "Point",
        "coordinates": [
          76.98294623403805,
          -27.46970589463467
        ]
      }
    },
    {
      "type": "Feature",
      "properties": {
        "norad_id": 66741,
        "name": "TRANSPORTER-15CD",
        "group": "last-30-days",
        "lat": -34.44623620613913,
        "lon": 78.2183233029206,
        "alt_km": 519.6915096691373,
        "timestamp": "2025-12-27T13:34:48.006598+00:00",
        "meta_object_name": "TRANSPORTER-15CD",
        "meta_object_id": "2025-276CD",
        "meta_epoch": "2025-12-27T05:49:15.766176",
        "meta_mean_motion": 15.17661307,
        "meta_eccentricity": 0.00013056,
        "meta_inclination": 97.4403,
        "meta_ra_of_asc_node": 72.758,
        "meta_arg_of_pericenter": 203.3782,
        "meta_mean_anomaly": 156.7393,
        "meta_ephemeris_type": 0,
        "meta_classification_type": "U",
        "meta_norad_cat_id": 66741,
        "meta_element_set_no": 999,
        "meta_rev_at_epoch": 432,
        "meta_bstar": 0.00021590549,
        "meta_mean_motion_dot": 4.281e-05,
        "meta_mean_motion_ddot": 0,
        "tle_line1": "1 66741U 25276CD  25361.24254359  .00004281  00000+0  21591-3 0  9992",
        "tle_line2": "2 66741  97.4403  72.7580 0001305 203.3782 156.7393 15.17661307  4326"
      },
      "geometry": {
        "type": "Point",
        "coordinates": [
          78.2183233029206,
          -34.44623620613913
        ]
      }
    },
    {
      "type": "Feature",
      "properties": {
        "norad_id": 66742,
        "name": "TRANSPORTER-15CE",
        "group": "last-30-days",
        "lat": -24.805441198082057,
        "lon": 76.53972154879537,
        "alt_km": 519.6221925983418,
        "timestamp": "2025-12-27T13:34:48.006608+00:00",
        "meta_object_name": "TRANSPORTER-15CE",
        "meta_object_id": "2025-276CE",
        "meta_epoch": "2025-12-27T05:46:43.150944",
        "meta_mean_motion": 15.17755097,
        "meta_eccentricity": 0.0002079,
        "meta_inclination": 97.4396,
        "meta_ra_of_asc_node": 72.7579,
        "meta_arg_of_pericenter": 175.6518,
        "meta_mean_anomaly": 184.4734,
        "meta_ephemeris_type": 0,
        "meta_classification_type": "U",
        "meta_norad_cat_id": 66742,
        "meta_element_set_no": 999,
        "meta_rev_at_epoch": 432,
        "meta_bstar": 0.00051774967,
        "meta_mean_motion_dot": 0.00010394,
        "meta_mean_motion_ddot": 0,
        "tle_line1": "1 66742U 25276CE  25361.24077721  .00010394  00000+0  51775-3 0  9998",
        "tle_line2": "2 66742  97.4396  72.7579 0002079 175.6518 184.4734 15.17755097  4320"
      },
      "geometry": {
        "type": "Point",
        "coordinates": [
          76.53972154879537,
          -24.805441198082057
        ]
      }
    },
    {
      "type": "Feature",
      "properties": {
        "norad_id": 66743,
        "name": "TRANSPORTER-15CF",
        "group": "last-30-days",
        "lat": -46.98239645143861,
        "lon": 81.11772910503984,
        "alt_km": 520.2844948646061,
        "timestamp": "2025-12-27T13:34:48.006618+00:00",
        "meta_object_name": "TRANSPORTER-15CF",
        "meta_object_id": "2025-276CF",
        "meta_epoch": "2025-12-27T04:17:38.961024",
        "meta_mean_motion": 15.1757527,
        "meta_eccentricity": 9.31e-05,
        "meta_inclination": 97.4396,
        "meta_ra_of_asc_node": 72.6874,
        "meta_arg_of_pericenter": 198.1721,
        "meta_mean_anomaly": 161.9479,
        "meta_ephemeris_type": 0,
        "meta_classification_type": "U",
        "meta_norad_cat_id": 66743,
        "meta_element_set_no": 999,
        "meta_rev_at_epoch": 431,
        "meta_bstar": 0.00039742552,
        "meta_mean_motion_dot": 7.919e-05,
        "meta_mean_motion_ddot": 0,
        "tle_line1": "1 66743U 25276CF  25361.17892316  .00007919  00000+0  39743-3 0  9996",
        "tle_line2": "2 66743  97.4396  72.6874 0000931 198.1721 161.9479 15.17575270  4317"
      },
      "geometry": {
        "type": "Point",
        "coordinates": [
          81.11772910503984,
          -46.98239645143861
        ]
      }
    },
    {
      "type": "Feature",
      "properties": {
        "norad_id": 66744,
        "name": "TRANSPORTER-15CG",
        "group": "last-30-days",
        "lat": -13.855324414556438,
        "lon": 74.87365139658831,
        "alt_km": 521.5428039019043,
        "timestamp": "2025-12-27T13:34:48.006628+00:00",
        "meta_object_name": "TRANSPORTER-15CG",
        "meta_object_id": "2025-276CG",
        "meta_epoch": "2025-12-27T07:19:09.166944",
        "meta_mean_motion": 15.19396478,
        "meta_eccentricity": 0.00244677,
        "meta_inclination": 97.3864,
        "meta_ra_of_asc_node": 72.7849,
        "meta_arg_of_pericenter": 223.8381,
        "meta_mean_anomaly": 136.0913,
        "meta_ephemeris_type": 0,
        "meta_classification_type": "U",
        "meta_norad_cat_id": 66744,
        "meta_element_set_no": 999,
        "meta_rev_at_epoch": 433,
        "meta_bstar": 0.00065514069,
        "meta_mean_motion_dot": 0.00013922,
        "meta_mean_motion_ddot": 0,
        "tle_line1": "1 66744U 25276CG  25361.30496721  .00013922  00000+0  65514-3 0  9998",
        "tle_line2": "2 66744  97.3864  72.7849 0024467 223.8381 136.0913 15.19396478  4339"
      },
      "geometry": {
        "type": "Point",
        "coordinates": [
          74.87365139658831,
          -13.855324414556438
        ]
      }
    },
    {
      "type": "Feature",
      "properties": {
        "norad_id": 66745,
        "name": "TRANSPORTER-15CH",
        "group": "last-30-days",
        "lat": -50.97927522234391,
        "lon": 82.3497199332533,
        "alt_km": 521.1635785433136,
        "timestamp": "2025-12-27T13:34:48.006638+00:00",
        "meta_object_name": "TRANSPORTER-15CH",
        "meta_object_id": "2025-276CH",
        "meta_epoch": "2025-12-27T05:53:37.759488",
        "meta_mean_motion": 15.17421643,
        "meta_eccentricity": 0.00014256,
        "meta_inclination": 97.4404,
        "meta_ra_of_asc_node": 72.7549,
        "meta_arg_of_pericenter": 184.9719,
        "meta_mean_anomaly": 175.1501,
        "meta_ephemeris_type": 0,
        "meta_classification_type": "U",
        "meta_norad_cat_id": 66745,
        "meta_element_set_no": 999,
        "meta_rev_at_epoch": 432,
        "meta_bstar": 0.00015843563,
        "meta_mean_motion_dot": 3.101e-05,
        "meta_mean_motion_ddot": 0,
        "tle_line1": "1 66745U 25276CH  25361.24557592  .00003101  00000+0  15844-3 0  9995",
        "tle_line2": "2 66745  97.4404  72.7549 0001425 184.9719 175.1501 15.17421643  4326"
      },
      "geometry": {
        "type": "Point",
        "coordinates": [
          82.3497199332533,
          -50.97927522234391
        ]
      }
    },
    {
      "type": "Feature",
      "properties": {
        "norad_id": 66746,
        "name": "TRANSPORTER-15CJ",
        "group": "last-30-days",
        "lat": -22.804921431613632,
        "lon": 76.22279220592134,
        "alt_km": 520.7430516969062,
        "timestamp": "2025-12-27T13:34:48.006648+00:00",
        "meta_object_name": "TRANSPORTER-15CJ",
        "meta_object_id": "2025-276CJ",
        "meta_epoch": "2025-12-27T05:46:44.191200",
        "meta_mean_motion": 15.19504664,
        "meta_eccentricity": 0.00134953,
        "meta_inclination": 97.3829,
        "meta_ra_of_asc_node": 72.7797,
        "meta_arg_of_pericenter": 189.5913,
        "meta_mean_anomaly": 170.5066,
        "meta_ephemeris_type": 0,
        "meta_classification_type": "U",
        "meta_norad_cat_id": 66746,
        "meta_element_set_no": 999,
        "meta_rev_at_epoch": 432,
        "meta_bstar": 0.00090326898,
        "meta_mean_motion_dot": 0.0001919,
        "meta_mean_motion_ddot": 0,
        "tle_line1": "1 66746U 25276CJ  25361.24078925  .00019190  00000+0  90327-3 0  9998",
        "tle_line2": "2 66746  97.3829  72.7797 0013495 189.5913 170.5066 15.19504664  4321"
      },
      "geometry": {
        "type": "Point",
        "coordinates": [
          76.22279220592134,
          -22.804921431613632
        ]
      }
    }
  ]
}